{
  "norad_id": 63105,
  "name": "STARLINK-11624 [DTC]",
  "history": [
    {
      "epoch": "2026-03-28T11:05:15.168768Z",
      "apogee_km": 358.33399216880207,
      "perigee_km": 353.74276607882257,
      "latitude_deg": -1.202753703739979e-05,
      "longitude_deg": 131.8766988498464,
      "height_km": 355.7532158644835,
      "semi_major_axis_km": 6734.1753791238125,
      "eccentricity": 0.00034089,
      "inclination_deg": 43.0024,
      "raan_deg": 124.072,
      "arg_perigee_deg": 271.4796,
      "mean_anomaly_deg": 88.5681,
      "mean_motion_rev_day": 15.70999794
    },
    {
      "epoch": "2026-03-29T05:23:59.801280Z",
      "apogee_km": 356.8871678571559,
      "perigee_km": 355.3490639886795,
      "latitude_deg": 2.7888060318478963e-06,
      "longitude_deg": -148.1597177064523,
      "height_km": 356.4993417705375,
      "semi_major_axis_km": 6734.255115922917,
      "eccentricity": 0.0001142,
      "inclination_deg": 43.0003,
      "raan_deg": 119.4736,
      "arg_perigee_deg": 217.5812,
      "mean_anomaly_deg": 142.4976,
      "mean_motion_rev_day": 15.70971892
    },
    {
      "epoch": "2026-03-30T04:17:22.247808Z",
      "apogee_km": 357.30177007941256,
      "perigee_km": 355.5938793678615,
      "latitude_deg": -2.7218158909526725e-05,
      "longitude_deg": -138.19141747923885,
      "height_km": 355.806161447603,
      "semi_major_axis_km": 6734.584824723636,
      "eccentricity": 0.0001268,
      "inclination_deg": 42.9992,
      "raan_deg": 113.7255,
      "arg_perigee_deg": 298.9872,
      "mean_anomaly_deg": 61.0868,
      "mean_motion_rev_day": 15.70856527
    },
    {
      "epoch": "2026-03-30T11:55:11.013600Z",
      "apogee_km": 357.00539208663577,
      "perigee_km": 355.8905488906212,
      "latitude_deg": -1.725641547651416e-06,
      "longitude_deg": 105.12135757117223,
      "height_km": 356.17537927007027,
      "semi_major_axis_km": 6734.584970488629,
      "eccentricity": 8.277e-05,
      "inclination_deg": 42.9991,
      "raan_deg": 111.8048,
      "arg_perigee_deg": 274.5728,
      "mean_anomaly_deg": 85.5045,
      "mean_motion_rev_day": 15.70856476
    },
    {
      "epoch": "2026-03-30T18:01:26.082048Z",
      "apogee_km": 356.99416554964046,
      "perigee_km": 355.62262840009316,
      "latitude_deg": -3.7402299807944006e-05,
      "longitude_deg": 11.778044620076036,
      "height_km": 355.4489895053886,
      "semi_major_axis_km": 6734.4453969748665,
      "eccentricity": 0.00010183,
      "inclination_deg": 42.9975,
      "raan_deg": 110.275,
      "arg_perigee_deg": 23.2783,
      "mean_anomaly_deg": 336.813,
      "mean_motion_rev_day": 15.70905311
    },
    {
      "epoch": "2026-03-31T01:39:12.579840Z",
      "apogee_km": 357.1349971467316,
      "perigee_km": 355.18838076770044,
      "latitude_deg": -3.136314042508701e-05,
      "longitude_deg": -104.89672518123633,
      "height_km": 356.06163091826625,
      "semi_major_axis_km": 6734.298688957216,
      "eccentricity": 0.00014453,
      "inclination_deg": 42.9994,
      "raan_deg": 108.3573,
      "arg_perigee_deg": 262.4691,
      "mean_anomaly_deg": 97.6012,
      "mean_motion_rev_day": 15.70956645
    },
    {
      "epoch": "2026-04-01T17:19:47.650656Z",
      "apogee_km": 357.8206110715573,
      "perigee_km": 354.76722009443165,
      "latitude_deg": 7.945027375782142e-06,
      "longitude_deg": 8.363538333919397,
      "height_km": 355.15237069292726,
      "semi_major_axis_km": 6734.430915582994,
      "eccentricity": 0.0002267,
      "inclination_deg": 42.9989,
      "raan_deg": 98.3931,
      "arg_perigee_deg": 53.383,
      "mean_anomaly_deg": 306.7246,
      "mean_motion_rev_day": 15.70910378
    },
    {
      "epoch": "2026-04-02T08:35:21.354720Z",
      "apogee_km": 357.33185529225284,
      "perigee_km": 355.04609037055434,
      "latitude_deg": 6.66529461797677e-05,
      "longitude_deg": 135.01308819370524,
      "height_km": 356.06984034171046,
      "semi_major_axis_km": 6734.325972831403,
      "eccentricity": 0.00016971,
      "inclination_deg": 42.9985,
      "raan_deg": 94.5597,
      "arg_perigee_deg": 264.558,
      "mean_anomaly_deg": 95.5095,
      "mean_motion_rev_day": 15.70947098
    },
    {
      "epoch": "2026-04-03T21:12:49.144032Z",
      "apogee_km": 357.37717389071895,
      "perigee_km": 355.8133690572831,
      "latitude_deg": -6.911277829407257e-06,
      "longitude_deg": -65.0554887567339,
      "height_km": 356.2936388362484,
      "semi_major_axis_km": 6734.732271474,
      "eccentricity": 0.0001161,
      "inclination_deg": 42.9992,
      "raan_deg": 85.3611,
      "arg_perigee_deg": 275.4157,
      "mean_anomaly_deg": 84.6578,
      "mean_motion_rev_day": 15.7080494
    },
    {
      "epoch": "2026-04-04T07:53:44.230560Z",
      "apogee_km": 357.09099239235456,
      "perigee_km": 355.00110602486257,
      "latitude_deg": -1.8722151851281103e-05,
      "longitude_deg": 131.59277827052216,
      "height_km": 355.3786773870523,
      "semi_major_axis_km": 6734.183049208608,
      "eccentricity": 0.00015517,
      "inclination_deg": 43.0002,
      "raan_deg": 82.6776,
      "arg_perigee_deg": 294.8964,
      "mean_anomaly_deg": 65.1742,
      "mean_motion_rev_day": 15.7099711
    },
    {
      "epoch": "2026-04-05T06:47:07.554912Z",
      "apogee_km": 357.45318058657904,
      "perigee_km": 355.2159891260908,
      "latitude_deg": -1.9081243451758816e-05,
      "longitude_deg": 141.55694075452382,
      "height_km": 356.1155137796265,
      "semi_major_axis_km": 6734.471584856335,
      "eccentricity": 0.0001661,
      "inclination_deg": 42.9999,
      "raan_deg": 76.929,
      "arg_perigee_deg": 269.5756,
      "mean_anomaly_deg": 90.4921,
      "mean_motion_rev_day": 15.70896148
    },
    {
      "epoch": "2026-04-05T22:02:42.795168Z",
      "apogee_km": 356.4244058426484,
      "perigee_km": 355.53859989478224,
      "latitude_deg": 1.0289536422594675e-05,
      "longitude_deg": -91.79816072848696,
      "height_km": 356.18629275787316,
      "semi_major_axis_km": 6734.118502868715,
      "eccentricity": 6.577e-05,
      "inclination_deg": 42.9995,
      "raan_deg": 73.0974,
      "arg_perigee_deg": 168.437,
      "mean_anomaly_deg": 191.6513,
      "mean_motion_rev_day": 15.71019697
    },
    {
      "epoch": "2026-04-07T07:37:01.783200Z",
      "apogee_km": 357.1141811856178,
      "perigee_km": 355.6463258050462,
      "latitude_deg": 1.0404655081557293e-05,
      "longitude_deg": 114.81366840626328,
      "height_km": 356.0531829640689,
      "semi_major_axis_km": 6734.517253495332,
      "eccentricity": 0.00010898,
      "inclination_deg": 43.0,
      "raan_deg": 64.6671,
      "arg_perigee_deg": 277.7723,
      "mean_anomaly_deg": 82.3021,
      "mean_motion_rev_day": 15.70880169
    },
    {
      "epoch": "2026-04-09T05:23:49.154208Z",
      "apogee_km": 357.4586050946846,
      "perigee_km": 355.3206622695552,
      "latitude_deg": 2.052082753250104e-05,
      "longitude_deg": 134.73708363290896,
      "height_km": 356.272645361997,
      "semi_major_axis_km": 6734.52663368212,
      "eccentricity": 0.00015873,
      "inclination_deg": 42.9996,
      "raan_deg": 53.168,
      "arg_perigee_deg": 264.0675,
      "mean_anomaly_deg": 96.0012,
      "mean_motion_rev_day": 15.70876887
    },
    {
      "epoch": "2026-04-10T04:17:13.170624Z",
      "apogee_km": 357.7486760053771,
      "perigee_km": 353.81687492687706,
      "latitude_deg": 3.238277110518896e-05,
      "longitude_deg": 144.6973661179906,
      "height_km": 355.37450016592175,
      "semi_major_axis_km": 6733.919775466126,
      "eccentricity": 0.00029194,
      "inclination_deg": 42.9992,
      "raan_deg": 47.4184,
      "arg_perigee_deg": 275.3041,
      "mean_anomaly_deg": 84.7494,
      "mean_motion_rev_day": 15.71089242
    },
    {
      "epoch": "2026-04-11T06:13:43.970016Z",
      "apogee_km": 357.74787546465177,
      "perigee_km": 355.15640556338167,
      "latitude_deg": 2.6366839246642174e-05,
      "longitude_deg": 107.98843102690951,
      "height_km": 356.135305221833,
      "semi_major_axis_km": 6734.589140514016,
      "eccentricity": 0.0001924,
      "inclination_deg": 42.9991,
      "raan_deg": 40.9032,
      "arg_perigee_deg": 273.9653,
      "mean_anomaly_deg": 86.0995,
      "mean_motion_rev_day": 15.70855017
    },
    {
      "epoch": "2026-04-13T04:00:32.004576Z",
      "apogee_km": 357.2369632882637,
      "perigee_km": 355.63965671623737,
      "latitude_deg": -7.769562169028813e-06,
      "longitude_deg": 127.90933087306311,
      "height_km": 356.32552905592314,
      "semi_major_axis_km": 6734.57531000225,
      "eccentricity": 0.00011859,
      "inclination_deg": 42.9979,
      "raan_deg": 29.4044,
      "arg_perigee_deg": 261.7051,
      "mean_anomaly_deg": 98.3682,
      "mean_motion_rev_day": 15.70859856
    },
    {
      "epoch": "2026-04-14T19:41:04.371072Z",
      "apogee_km": 357.6299961861714,
      "perigee_km": 355.2716782173402,
      "latitude_deg": 2.1595985865363293e-05,
      "longitude_deg": -118.82011783172561,
      "height_km": 357.3132980198647,
      "semi_major_axis_km": 6734.587837201756,
      "eccentricity": 0.00017509,
      "inclination_deg": 42.9983,
      "raan_deg": 19.4392,
      "arg_perigee_deg": 202.2936,
      "mean_anomaly_deg": 157.7856,
      "mean_motion_rev_day": 15.70855473
    }
  ]
}